{
    "links": {
        "self": "http://www.neowsapp.com/rest/v1/neo/3303223?api_key=iIulBulltgU6a56xZRHN4H3l9WmuAYTsLGpBGhQ2"
    },
    "id": "3303223",
    "neo_reference_id": "3303223",
    "name": "(2005 WY)",
    "designation": "2005 WY",
    "nasa_jpl_url": "http://ssd.jpl.nasa.gov/sbdb.cgi?sstr=3303223",
    "absolute_magnitude_h": 27.1,
    "estimated_diameter": {
        "kilometers": {
            "estimated_diameter_min": 0.0101054342,
            "estimated_diameter_max": 0.0225964377
        },
        "meters": {
            "estimated_diameter_min": 10.1054341542,
            "estimated_diameter_max": 22.5964377109
        },
        "miles": {
            "estimated_diameter_min": 0.0062792237,
            "estimated_diameter_max": 0.0140407711
        },
        "feet": {
            "estimated_diameter_min": 33.1543125905,
            "estimated_diameter_max": 74.1352966996
        }
    },
    "is_potentially_hazardous_asteroid": false,
    "close_approach_data": [
        {
            "close_approach_date": "2005-11-27",
            "close_approach_date_full": "2005-Nov-27 22:04",
            "epoch_date_close_approach": 1133129040000,
            "relative_velocity": {
                "kilometers_per_second": "8.2921657555",
                "kilometers_per_hour": "29851.7967199436",
                "miles_per_hour": "18548.7455785672"
            },
            "miss_distance": {
                "astronomical": "0.0050771535",
                "lunar": "1.9750127115",
                "kilometers": "759531.349263045",
                "miles": "471950.895778221"
            },
            "orbiting_body": "Earth"
        },
        {
            "close_approach_date": "2005-11-28",
            "close_approach_date_full": "2005-Nov-28 08:23",
            "epoch_date_close_approach": 1133166180000,
            "relative_velocity": {
                "kilometers_per_second": "8.3896919862",
                "kilometers_per_hour": "30202.891150161",
                "miles_per_hour": "18766.902003832"
            },
            "miss_distance": {
                "astronomical": "0.0051011472",
                "lunar": "1.9843462608",
                "kilometers": "763120.755676464",
                "miles": "474181.2495006432"
            },
            "orbiting_body": "Moon"
        },
        {
            "close_approach_date": "2097-03-07",
            "close_approach_date_full": "2097-Mar-07 21:57",
            "epoch_date_close_approach": 4013531820000,
            "relative_velocity": {
                "kilometers_per_second": "20.5549661211",
                "kilometers_per_hour": "73997.8780359398",
                "miles_per_hour": "45979.4037162761"
            },
            "miss_distance": {
                "astronomical": "0.3982754067",
                "lunar": "154.9291332063",
                "kilometers": "59581152.515703729",
                "miles": "37022011.4397763002"
            },
            "orbiting_body": "Earth"
        }
    ],
    "orbital_data": {
        "orbit_id": "8",
        "orbit_determination_date": "2017-04-06 09:09:51",
        "first_observation_date": "2005-11-21",
        "last_observation_date": "2005-11-27",
        "data_arc_in_days": 6,
        "observations_used": 24,
        "orbit_uncertainty": "7",
        "minimum_orbit_intersection": ".00176486",
        "jupiter_tisserand_invariant": "3.940",
        "epoch_osculation": "2459000.5",
        "eccentricity": ".476171908962021",
        "semi_major_axis": "1.788581437927118",
        "inclination": ".5735671755524708",
        "ascending_node_longitude": "236.0059967703889",
        "orbital_period": "873.698330418335",
        "perihelion_distance": ".936909200295326",
        "perihelion_argument": "222.8191772044804",
        "aphelion_distance": "2.640253675558911",
        "perihelion_time": "2458974.816241569092",
        "mean_anomaly": "10.58277521338497",
        "mean_motion": ".4120415336351033",
        "equinox": "J2000",
        "orbit_class": {
            "orbit_class_type": "APO",
            "orbit_class_description": "Near-Earth asteroid orbits which cross the Earth’s orbit similar to that of 1862 Apollo",
            "orbit_class_range": "a (semi-major axis) > 1.0 AU; q (perihelion) < 1.017 AU"
        }
    },
    "is_sentry_object": false
}